#dP2023  1  5  0  0  0.00000000      96 __u+U ITR14 FIT  IAC
## 2243 345600.00000000   900.00000000 59949 0.0000000000000
+  126   C01C02C03C04C05C06C07C08C09C10C11C12C13C14C16C19C20
+        C21C22C23C24C25C26C27C28C29C30C32C33C34C36C37C39C40
+        C41C42C43C44C45C46C60E01E02E03E04E05E07E08E09E10E11
+        E12E13E14E15E18E19E21E24E25E26E27E30E31E33E34E36G01
+        G02G03G04G05G06G07G08G09G10G11G12G13G14G15G16G17G18
+        G19G20G21G22G23G24G25G26G27G29G30G31G32J02J04J07R01
+        R02R03R04R05R06R07R08R09R10R11R12R13R14R15R16R17R18
+        R19R20R21R22R23R24R25  0  0  0  0  0  0  0  0  0  0
++        17 17 17 17  0  9  9  9  9  9  9  9  9  9  9  7  7
++         7  7  7  7  7  7  7  7  7  8  8  7  7  7  8  8  9
++         7  7  7  7  7  8 19  5  4  4  4  4  4  5  4  4  4
++         4  4  4  4  5  4  4  4  4  5  4  4  5  5  4  4  4
++         4  4  4  4  4  4  4  4  4  4  4  4  4  4  4  4  4
++         4  4  4  4  4  4  4  4  4  4  4  4  4  8  8 17  7
++         6  6  6  6 15  6  6  6 15  6  6  7  6  6  6  6  6
++         8  7  6  6 15  6  8  0  0  0  0  0  0  0  0  0  0
%c M  cc GPS ccc cccc cccc cccc cccc ccccc ccccc ccccc ccccc
%c cc cc ccc ccc cccc cccc cccc cccc ccccc ccccc ccccc ccccc
%f  0.0000000  0.000000000  0.00000000000  0.000000000000000
%f  0.0000000  0.000000000  0.00000000000  0.000000000000000
%i    0    0    0    0      0      0      0      0         0
%i    0    0    0    0      0      0      0      0         0
/* INFORMATION & ANALYSIS CENTER (IAC)            RAPID DATA
/* S/V CLOCKS ARE ALIGNED TO GNSS TIME                      
/* G:C1WC2W R:C1PC2P E:C1XC5X C:C2IC6I J:C1CC2S             
/* PCV:IGS20_2239 OL/AL:FES2004  NONE     YN ORB:CoN CLK:CoN
*  2023 01 05  0 15  0.00000000
PC01 -34343.545182  24420.751717    124.610743    922.515284
PC02   4400.244322  41963.942574    990.545164    -30.765676
PC03 -14784.253947  39516.128853    701.241092     30.988974
PC04 -39606.560572  14396.231781   -416.872690   -319.378119
PC05      0.000000      0.000000      0.000000 999999.999999
PC06  -1439.091837  36137.473719  21882.953461    208.081357
PC07 -10488.060786  26379.174569 -31142.795676     61.992009
PC08 -16747.233775  36664.674649  12095.871961    526.722793
PC09   3377.323341  39491.868107  15504.378860    130.472656
PC10  -4466.222946  26868.018653 -31923.345247     38.481767
PC11 -17188.090046 -21239.340426  -5658.145513   -196.212870
PC12  -6240.400123 -24619.142509  11617.144060    380.913991
PC13 -11432.315632  36858.805174  16807.043898    175.449396
PC14 -20286.727016 -10097.963453 -16303.091525    334.998216
PC16  -3437.205987  34377.745484  24553.563253     88.468814
PC19  26200.935387   4416.566085   8531.363457   -898.760805
PC20  12764.992144  13531.460003  20805.021352    779.949297
PC21   9412.784604 -15155.252926 -21440.974167   -919.439382
PC22  25149.408829  -7680.432883  -9317.194144   -702.778400
PC23 -19076.389346  14353.458919  14438.085914   -870.917501
PC24  -2369.331366 -22075.290458  16906.021575   -583.120381
PC25 -16040.093634  -3945.055148  22477.243351     50.390258
PC26  10176.984056 -25841.625335   2906.268338    -59.755889
PC27  -1046.251031  21490.019371 -17794.692869     76.725891
PC28 -14373.560418   6982.770503 -22869.869372     55.218535
PC29  20555.192470  12364.968760  14260.749199     63.099757
PC30  13772.806470  24066.385210  -3255.484277      1.263787
PC32  -9403.839837  15238.019589  21418.219473   -660.123140
PC33 -26205.504957  -4308.681888  -8584.521597   -884.429085
PC34 -14484.864370 -23747.709863   2063.725141     76.524171
PC36  15649.221905   4994.202057 -22544.385678   -717.534732
PC37 -11639.858310  25294.312679  -1599.880241   -857.758679
PC39  -5887.419669  30845.246616  28256.655351     -1.304213
PC40 -16420.613560  20003.612013 -33348.966993    -11.765672
PC41 -25411.306334   7488.644626   8818.872487   -457.469367
PC42 -11511.493677 -13932.017302 -21226.068920   -915.493602
PC43 -20550.012965 -13061.202365 -13616.223068      0.425392
PC44    537.629394 -21435.891623  17833.989153    167.105510
PC45  18981.791642 -14754.286119 -14200.524749    -43.485000
PC46   3796.709172  20853.868173 -18136.234246    -24.257259
PC60   7307.778059  41523.958208   -128.635436     -0.603772
PE01  26654.662368 -10852.432301  -6957.497209   -590.121443
PE02 -26614.812879  11094.952272   6625.895343     12.766291
PE03 -23766.633760   1388.367039  17586.417561   -636.732781
PE04   7629.897929 -15225.108508 -24209.103306    -29.189970
PE05 -26291.155394 -13587.599812    461.104448   -108.314248
PE07  13396.538448  20423.034484  16718.952556    -12.659909
PE08  -7617.643683  15068.167080  24307.798653    -14.174951
PE09 -13304.608120 -20318.031327 -16929.446728   -788.645837
PE10   1010.639320 -29382.645561   3462.009484   -502.774830
PE11  -5701.506074 -28144.022091  -7156.455011    317.992978
PE12   7113.573688 -25883.930031  12460.844924   -372.647476
PE13   5190.838796  28458.405353   6298.368326    430.099722
PE14 -28634.696178 -10246.369474  -9794.582835    104.310939
PE15  -7190.302244  25727.540278 -12742.724930    696.310204
PE18  20839.659191  11774.812047   3363.299447   -546.918336
PE19  25023.624260    935.043779 -15788.496231  -3567.886782
PE21  20794.286047   3779.363307 -20733.115150   -504.381351
PE24  -1639.261869 -17933.232930  23481.570296  -1040.212410
PE25 -20563.860516  -4054.645386  20897.784825   -596.487481
PE26  14742.543391  13628.958624  21760.410809  -1860.916386
PE27   2679.394800  17456.978372 -23752.088717   -479.930779
PE30 -17462.567623  20564.942818 -12165.720756  -1134.277551
PE31  16854.045292 -20732.846352  12755.030527   -512.473174
PE33  15252.578628  -7808.984279  24145.171502   -454.792154
PE34 -15201.111085   8030.129713 -24092.072134    -23.183419
PE36 -14382.816436 -14488.863833 -21420.664620   -485.663684
PG01  13087.741577 -12620.639459  18917.660957    228.510986
PG02 -10899.879999  16823.734901 -16901.409809   -629.201132
PG03  23286.494236 -12648.968177   -338.539422   -373.818181
PG04  16953.551260  -5226.602974 -19796.684576    -55.139958
PG05 -22911.556488   2715.532642 -13430.637955   -110.750392
PG06  -6139.480140 -23402.457600 -10786.085013    553.108257
PG07   6645.903098 -24011.365048  -8030.803173    263.953920
PG08  23470.057366   4003.914710  12112.687692   -102.020349
PG09   6143.199351 -14177.563659 -21679.813476   -241.972704
PG10    418.782666  16054.503338  21261.347350    -19.072094
PG11 -12428.482614 -13103.708005 -19476.168417    -71.494645
PG12 -24347.871226  10437.100627    543.832835   -324.244071
PG13 -22460.335472 -12426.958790   7021.201980    453.901645
PG14   2653.433422 -17223.607592  20015.719907    -55.667220
PG15 -23759.868174  -1175.591228  11641.140091      1.850951
PG16  21616.826153   2683.957862 -15806.200231   -524.726391
PG17  -6679.380069 -19240.455407  17438.756848    691.101316
PG18  -5267.143672  25308.646466  -5757.606160    -86.259916
PG19 -16497.907669 -19464.435877   7620.502400    259.808484
PG20 -15686.232670  -6455.367161 -20361.015473    459.106062
PG21  15290.334852  -2909.036888  22069.924708    153.195998
PG22  18448.018461  18549.569843   5531.083301    399.164611
PG23 -11351.770850  18455.878253  15263.077990      1.589082
PG24 -14501.776931   8465.285663  20143.981246    -15.703191
PG25 -18894.817882  16774.055423  -8005.744390    408.416922
PG26  12207.052275  10776.511731 -21129.081783    239.763310
PG27  23366.372361  12917.148194   1929.049877    135.154858
PG29  -9445.633878  11478.414469 -22054.861025   -578.481460
PG30  -1416.469621 -26156.279953   3536.261575   -534.028193
PG31   7539.055830  22094.756980 -12386.516434   -205.375440
PG32  10807.292707  19126.983709  15226.742214   -353.369489
PJ02 -36291.386860  20538.772469  -1822.770910     -0.486040
PJ04 -27824.330821  29750.509051  17327.148774    117.483758
PJ07 -25365.582393  33674.567492     19.515124     -0.020827
PR01 -20596.194956   4678.067408  14308.062502     20.704390
PR02  -2829.935178  10537.994152  23095.059745    -23.335831
PR03  15618.869964  10353.008669  17382.264919     70.326671
PR04  25017.425132   4522.045974   2222.790720    171.173779
PR05  20884.672490  -3708.298136 -14181.950559    105.676241
PR06   1369.434503 -10937.002112 -23015.482668    -88.743894
PR07 -16234.844960 -10164.831773 -16778.586003     47.397643
PR08 -25051.534509  -4270.770868  -1923.452870    -68.855565
PR09   9572.465648 -21437.689258   9895.555367     96.802085
PR10  -1726.385854 -14512.458889  20914.089319    -89.305470
PR11 -13792.533853   1526.021218  21411.753059      9.325536
PR12 -17481.146913  16825.753696   7856.863672     24.100501
PR13 -10911.588071  21483.179838  -8381.699499    -30.635139
PR14   3112.966012  13274.943762 -21554.928731     24.180544
PR15  14404.572952  -2336.300099 -20908.708722     91.914240
PR16  17325.925502 -16814.665739  -8186.506889      9.555575
PR17  11209.257575  22513.279651   4162.737149    592.931579
PR18  13453.918587  11391.445155  18481.263010     60.212630
PR19   9501.745447  -4167.946767  23308.956888   -217.074798
PR20  -1235.978281 -21393.670408  13818.184866    -85.248237
PR21 -11598.860136 -21981.574976  -5790.608109   -362.924834
PR22 -13272.547417 -10975.963256 -18778.269131     65.245857
PR23  -7177.201741   9403.876284 -22599.624686    -67.971453
PR24   2060.064212  21773.741240 -13093.310214    137.413365
PR25 -10011.628390 -23174.998566  -3716.972996     50.732036
EOF
